ID,Name,iso_code,latitude,longitude,family,macroarea,countrycodes
288,Aché,guq,-25.25,-55.1666666667,Tupian,South America,PY
61,Aghul,agx,41.75,47.6666666667,Nakh-Daghestanian,Eurasia,RU
258,Aguaruna,agr,-5,-78,Jivaroan,South America,PE
33,Akhvakh (Northern dialect),akv,42.3333333333,46.3333333333,Nakh-Daghestanian,Eurasia,RU
205,Albanian (Tosk variety),aln,41,20,Indo-European,Eurasia,AL RS
32,Andi,ani,42.75,46.25,Nakh-Daghestanian,Eurasia,RU
272,Araona,aro,-12.3333333333,-67.75,Tacanan,South America,BO
62,Archi (variety 1),aqc,42,46.8333333333,Nakh-Daghestanian,Eurasia,RU
206,Armenian (Eastern variety),hye,40,45,Indo-European,Eurasia,AM
207,Armenian (Western variety),hye,38.5,43.5,Indo-European,Eurasia,TR
107,Avar,ava,42.5,46.5,Nakh-Daghestanian,Eurasia,AZ RU
269,Aymara,ayc,-17,-69,Aymaran,South America,PE CL BO
297,Ayoreo,ayo,-20.25,-59.25,Zamucoan,South America,PY
71,Azerbaijani,azb,40.5,48.5,Altaic,Eurasia,AZ IR
35,Bagvalal,kva,42.5833333333,46.1666666667,Nakh-Daghestanian,Eurasia,RU
242,Barí,mot,9,-73,Chibchan,South America,VR CO
219,Basque,eus,43,-3,Basque,Eurasia,ES FR
261,Baure,brg,-13.0833333333,-64.1666666667,Arawakan,South America,BO
231,Bella Coola,blc,52.5,-126.666666667,Salishan,North America,CA
701,Bengali,ben,24,90,Indo-European,Eurasia,BD IN
160,Bezhta,kap,42.0833333333,46.1666666667,Nakh-Daghestanian,Eurasia,RU
183,Breton,bre,48,-3,Indo-European,Eurasia,FR
63,Budukh,bdk,41.1666666667,48.4166666667,Nakh-Daghestanian,Eurasia,AZ
200,Bulgarian,bul,42.5,25,Indo-European,Eurasia,BG
293,Canela,ram,-7,-45,Macro-Ge,South America,BR
277,Cashibo,cbr,-8.5,-75.5,Panoan,South America,PE
177,Catalan,cat,41.75,2,Indo-European,Eurasia,ES
273,Cavineña,cav,-13.3333333333,-66.5,Tacanan,South America,BO
245,Cayapa,cbi,0.666666666667,-79,Barbacoan,South America,EC
283,Cayuvava,cyb,-13.5,-65.5,Cayuvava,South America,BO
279,Chácobo,cao,-12.1666666667,-66.75,Panoan,South America,BO
51,Chamalal,cji,42.55,46.05,Nakh-Daghestanian,Eurasia,RU
75,Chechen,che,43.25,45.8333333333,Nakh-Daghestanian,Eurasia,RU
270,Chipaya,cap,-18.75,-67.8333333333,Uru-Chipaya,South America,BO
289,Chiriguano,gui,-23.6666666667,-64.3333333333,Tupian,South America,PY AR BO
304,Chorote,crq,-22.5,-62.5,Matacoan,South America,BO AR PY
254,Cofán,con,0.166666666667,-77.1666666667,Cofán,South America,CO EC
246,Colorado,cof,-1,-79.3333333333,Barbacoan,South America,EC
186,Danish,dan,56,10,Indo-European,Eurasia,DK
57,Dargwa,dar,42.25,47.4166666667,Nakh-Daghestanian,Eurasia,RU
174,De'kwana,mch,5.5,-65,Cariban,South America,VR
191,Dutch,nld,52.5,6,Indo-European,Eurasia,NL
247,Embera,emp,6.83333333333,-77.1666666667,Choco,South America,CO PA
190,English,eng,52,0,Indo-European,Eurasia,GB IE
248,Epena,sja,3,-77,Choco,South America,CO
126,Erzya Mordvin,myv,53,45.5,Uralic,Eurasia,KZ RU
274,Ese Ejja,ese,-11,-66,Tacanan,South America,PE BO
127,Estonian,est,59,26,Uralic,Eurasia,EE
128,Finnish,fin,62,25,Uralic,Eurasia,FI
171,French,fra,48,2,Indo-European,Eurasia,FR CH
194,German,deu,52,10,Indo-European,Eurasia,AT DE CH
262,Goajiro,guc,12,-72,Arawakan,South America,VR CO
38,Godoberi,gdo,42.6666666667,46.0833333333,Nakh-Daghestanian,Eurasia,RU
290,Guaraní,gug,-26,-56,Tupian,South America,PY
312,Gününa Küne,pue,-41,-67,Chon,South America,AR
220,Hausa,hau,12,7,Afro-Asiatic,Africa,NG NE
235,Hawaiian,haw,19.5833333333,-155.5,Austronesian,Papunesia,US
702,Hindi,hin,25,77,Indo-European,Eurasia,IN
42,Hinuq,gin,42.1666666667,46,Nakh-Daghestanian,Eurasia,RU
421,Hlai (Baoting variety),lic,19,109.5,Tai-Kadai,Eurasia,CN
131,Hungarian,hun,47,20,Uralic,Eurasia,HU
52,Hunzib,huz,42.1666666667,46.25,Nakh-Daghestanian,Eurasia,RU
263,Ignaciano,ign,-15.1666666667,-65.4166666667,Arawakan,South America,BO
516,Ingush,inh,43.1666666667,45.0833333333,Nakh-Daghestanian,Eurasia,RU
170,Italian,ita,43,12,Indo-European,Eurasia,CH IT
284,Itonama,ito,-12.8333333333,-64.3333333333,Itonama,South America,BO
218,Jamaican Creole (Limonese Creole dialect),jam,18.1666666667,-77.25,other,North America,JM
294,Kaingáng,kgp,-26,-52,Macro-Ge,South America,BR
295,Karajá,kpj,-10,-50.3333333333,Macro-Ge,South America,BR
39,Karata,kpt,42.5833333333,46.3333333333,Nakh-Daghestanian,Eurasia,RU
224,Karok,kyh,41.6666666667,-123,Karok,North America,US
135,Khanty,kca,65,65,Uralic,Eurasia,RU
69,Khinalug,kjj,41.1666666667,48.0833333333,Nakh-Daghestanian,Eurasia,AZ
41,Khwarshi (Khwarshi dialect),khv,42.25,46.1666666667,Nakh-Daghestanian,Eurasia,RU
139,Komi,kpv,65,55,Uralic,Eurasia,RU
518,Kryz,kry,41.0833333333,48,Nakh-Daghestanian,Eurasia,AZ
72,Kumyk,kum,43,47.3333333333,Altaic,Eurasia,RU
308,Kunza,kuz,-23,-69,Kunza,South America,CL BO AR
56,Lak,lbe,42.1666666667,47.1666666667,Nakh-Daghestanian,Eurasia,RU
420,Lakkia,lbc,24.0833333333,110.166666667,Tai-Kadai,Eurasia,CN
300,Lengua,enx,-22.5,-59,Mascoian,South America,PY
64,Lezgian,lez,41.6666666667,47.8333333333,Nakh-Daghestanian,Eurasia,AZ RU
305,Maca,mca,-25,-57.5,Matacoan,South America,PY
173,Macushi,mbc,4,-60,Cariban,South America,GY BR VR
146,Mansi,mns,62,62,Uralic,Eurasia,RU
236,Maori,mri,-40,176,Austronesian,Papunesia,NZ
309,Mapudungun,arn,-38,-72,Araucanian,South America,CL
705,Marathi,mar,19,76,Indo-European,Eurasia,IN
147,Mari,mhr,57,48,Uralic,Eurasia,RU
237,Marquesan,mrq,-8.91666666667,-140.083333333,Austronesian,Papunesia,PF
814,Mlabri,mra,18.5,101,Austro-Asiatic,Eurasia,TH
301,Mocoví,moc,-28,-60.5,Guaicuruan,South America,AR
271,Mosetén,cas,-14.75,-67.8333333333,Mosetenan,South America,BO
285,Movima,mzp,-13.8333333333,-65.6666666667,Movima,South America,BO
243,Muisca,chb,5,-74,Chibchan,South America,CO
287,Mundurukú,myu,-7,-58,Tupian,South America,BR
222,Nahuatl (Sierra de Zacapoaxtla variety),azz,19.5833333333,-97.3333333333,Uto-Aztecan,North America,MX
148,Nenets,yrk,69,72,Uralic,Eurasia,RU
706,Nepali,nep,28,85,Indo-European,Eurasia,NP
252,Ninam (Shirishana variety),shb,3.5,-62.8333333333,Yanomam,South America,VR BR
307,Nivaclé,cag,-23.5,-60.5,Matacoan,South America,PY
73,Nogai,nog,44,46,Altaic,Eurasia,RU
227,Northern Haida,hdn,54,-132.5,Haida,North America,CA
143,Northern Saami,sme,69,24,Uralic,Eurasia,FI SE NO
413,Nung-Ninbei,nut,21.9166666667,106.416666667,Tai-Kadai,Eurasia,VN
230,Nuu-chah-nulth,noo,49.6666666667,-126.666666667,Wakashan,North America,CA
829,Nyakur,cbn,15.6666666667,101.666666667,Austro-Asiatic,Eurasia,TH
319,Ossetic,oss,43,44,Indo-European,Eurasia,GE RU
286,Pacaas Novos,pav,-11.3333333333,-65,Chapacura-Wanham,South America,BR
244,Páez,pbb,2.66666666667,-76,Páezan,South America,CO
172,Panare,pbh,6.5,-66,Cariban,South America,VR
214,Persian,pes,32,54,Indo-European,Eurasia,IR
302,Pilagá,plg,-25,-60,Guaicuruan,South America,AR
203,Polish,pol,52,20,Indo-European,Eurasia,PL
178,Portuguese,por,39,-8,Indo-European,Eurasia,PT
249,Puinave,pui,4,-68,Puinave,South America,VR CO
707,Punjabi,pan,31,74,Indo-European,Eurasia,PK IN
425,Qau Kelao,gqu,22.9166666667,105.5,Tai-Kadai,Eurasia,VN
313,Qawasqar,alc,-49,-75,Alacalufan,South America,CL
238,Rapa Nui,rap,-27.1166666667,-109.366666667,Austronesian,Papunesia,CL
212,Romani,rmy,47,21.5,Indo-European,Eurasia,RO HU
179,Romanian,ron,46,25,Indo-European,Eurasia,RO
239,Rotuman,rtm,-12.5,177.066666667,Austronesian,Papunesia,FJ
808,Rumai,rbb,22.6666666667,96.6666666667,Austro-Asiatic,Eurasia,MM
204,Russian,rus,56,38,Indo-European,Eurasia,RU
66,Rutul,rut,41.5,47.4166666667,Nakh-Daghestanian,Eurasia,RU AZ
311,Selknam,ona,-53,-70,Chon,South America,AR
151,Selkup,sel,65,82,Uralic,Eurasia,RU
201,Serbo-Croatian,bos,44,19,Indo-European,Eurasia,BA RS HR
225,Seri,sei,29,-112,Hokan,North America,MX
409,Shan,shn,22,98,Tai-Kadai,Eurasia,MM
281,Shipibo-Conibo,shp,-7.5,-75,Panoan,South America,PE
256,Siona,snn,0.333333333333,-76.25,Tucanoan,South America,EC CO
291,Sirionó,srq,-15.5833333333,-64,Tupian,South America,BO
176,Spanish,spa,40,-4,Indo-European,Eurasia,ES
415,Sui,swi,26,107.5,Tai-Kadai,Eurasia,CN
187,Swedish,swe,60,15,Indo-European,Eurasia,SE FI
68,Tabasaran (Southern dialect),tab,41.8333333333,47.9166666667,Nakh-Daghestanian,Eurasia,RU
276,Tacana,tna,-13.5,-68,Tacanan,South America,BO
408,Tai Khün,kkh,21,100,Tai-Kadai,Eurasia,MM
407,Tai Lü,khb,22,100.666666667,Tai-Kadai,Eurasia,CN LA MM
708,Tamil,tam,11,78.5,Dravidian,Eurasia,LK IN
310,Tehuelche,teh,-48,-68,Chon,South America,AR
709,Telugu,tel,16,79,Dravidian,Eurasia,IN
710,Tibetan,bod,30.8333333333,79,Sino-Tibetan,Eurasia,IN
50,Tindi,tin,42.3666666667,46.25,Nakh-Daghestanian,Eurasia,RU
228,Tlingit,tli,59,-135,Na-Dene,North America,US
314,Toba,tob,-26.5,-59,Guaicuruan,South America,AR
240,Tongan,ton,-21.1666666667,-175.166666667,Austronesian,Papunesia,TO
296,Trumai,tpy,-11.9166666667,-53.5833333333,Trumai,South America,BR
70,Tsakhur,tkr,41.6666666667,47.1666666667,Nakh-Daghestanian,Eurasia,RU AZ
162,Tsez (Mokok dialect),ddo,42.25,45.75,Nakh-Daghestanian,Eurasia,RU
229,Tsimshian,tsi,52.5,-129,Penutian,North America,US CA
533,Tsova-Tush,bbl,42.5,45.5,Nakh-Daghestanian,Eurasia,GE
241,Tuamotuan,pmt,-17,-144,Austronesian,Papunesia,PF
257,Tuyuca,tue,0.5,-70.0833333333,Tucanoan,South America,CO BR
80,Udi,udi,41,48,Nakh-Daghestanian,Eurasia,AZ
159,Udmurt,udm,57.5,52.5,Uralic,Eurasia,RU
232,Upper Chehalis,cjh,46.5833333333,-123,Salishan,North America,US
816,Vietnamese,vie,10.5,106.5,Austro-Asiatic,Eurasia,VN
175,Wai Wai,waw,1,-59,Cariban,South America,BR GY
255,Waorani,auc,-1,-76.5,Waorani,South America,EC
266,Wapishana,wap,2.66666666667,-60,Arawakan,South America,BR GY
267,Waurá,wau,-13,-53,Arawakan,South America,BR
292,Wayampi,oym,1,-52,Tupian,South America,BR
306,Wichí,mzh,-22.5,-62.5833333333,Matacoan,South America,AR BO
315,Yagán,yag,-55,-68,Yámana,South America,CL
260,Yagua,yad,-3.5,-72,Peba-Yaguan,South America,PE
282,Yaminahua,yaa,-8,-73,Panoan,South America,BR PE
253,Yanomámi,wca,2.33333333333,-63,Yanomam,South America,BR
251,Yaruro,yae,7,-68,Yaruro,South America,VR
195,Yiddish,yih,52,23,Indo-European,Eurasia,LT PL DE BY UA
226,Zuni,zun,35.0833333333,-108.833333333,Zuni,North America,US
827,Ahlao Th,thm,17.7655,104.229,Austro-Asiatic,NA,LA TH
34,Akhvakh (Southern dialect),akv,42.4003,46.3037,Nakh-Daghestanian,NA,RU
534,Archi (variety 2),aqc,42.3239,46.8267,Nakh-Daghestanian,NA,RU
213,Avestan,ave,31.541,53.633,Indo-European,NA,IR
37,Botlikh,bph,42.665,46.22,Nakh-Daghestanian,NA,RU
801,Bulang,blr,22.0092,99.7405,Austro-Asiatic,NA,CN MM TH
278,Catuquina,knt,-7.97456,-71.56151,Panoan,NA,BR
401,Central Thai,tha,14.192,100.671,Tai-Kadai,NA,KH MM TH
223,Chatino (Zacatepec variety),ctz,16.08,-97.3069,Otomanguean,NA,MX
317,Chechen (Akkin dialect),che,43.5,45.5,Nakh-Daghestanian,NA,GE KZ RU
834,Chong,cog,12.5218,102.514,Austro-Asiatic,NA,KH TH
815,Cuoi,hnu,18.7849,104.772,Austro-Asiatic,NA,LA VN
405,Dehong,tdd,21.7837,99.722,Tai-Kadai,NA,CN LA MM TH VN
423,Ecun Buyang,yln,23.0105,104.449,Tai-Kadai,NA,CN
838,Iduh,tyh,19.3497,104.106,Austro-Asiatic,NA,LA VN
74,Judeo-Tat,jdt,42.068306,48.264749,Indo-European,NA,AZ
832,Kasong,syo,11.936,104.136,Austro-Asiatic,NA,KH
804,Keme (Kemie variety),mml,22.0743,100.842,Austro-Asiatic,NA,CN
825,Kha Poong,pkt,17.913525,105.52746,Austro-Asiatic,NA,LA VN
404,Khamuang (Chiang Mai variety),nod,18.857495,100.20739,Tai-Kadai,NA,LA MM TH
54,Khwarshi (Inkhokvari dialect),khv,42.2743,45.9977,Nakh-Daghestanian,NA,RU
422,Langja Buyang,yzg,23.0105,104.449,Tai-Kadai,NA,CN
819,LiHa,hnu,18.7849,104.772,Austro-Asiatic,NA,LA VN
704,Mahasu Pahari (Kotghari dialect),bfz,31.0088,77.5317,Indo-European,NA,IN
826,Malieng,scb,17.6819,105.773,Austro-Asiatic,NA,LA VN
839,Mang Ch,zng,21.4305,102.133,Austro-Asiatic,NA,CN TH VN
264,Mashco Piro,cuj,-11.4745,-70.7953,Arawakan,NA,PE
411,Nung-Fengshan,zgn,23.6818,107.184,Tai-Kadai,NA,CN
412,Nung-Lazhai,zgn,23.6818,107.184,Tai-Kadai,NA,CN
811,Paliu,ply,24.7013,104.955,Austro-Asiatic,NA,CN
830,Pear,pcb,13.593,105.028,Austro-Asiatic,NA,KH
820,Phong,pnx,19.9622,104.088,Austro-Asiatic,NA,LA VN
221,Polci,plj,10.0258,9.53362,afro1255,NA,NG
810,Pusing,bgk,21.3474,101.916,Austro-Asiatic,NA,CN LA
833,Samre,sxm,13.479,103.978,Bookkeeping,NA,KH
298,Sanapaná (Angaité dialect),sap,-22.11454,-58.90698,Bookkeeping,NA,PY
299,Sanapaná (Enlhet dialect),sap,-22.11454,-58.90698,Bookkeeping,NA,PY
424,Sanchong Kelao,giq,22.5632,104.698,Tai-Kadai,NA,VN
402,Southern Tai (Songkhla variety),sou,6.85668,99.7031,Tai-Kadai,NA,MM MY TH
836,Surin Khmer,kxm,14.4674,103.863,Austro-Asiatic,NA,KH TH
67,Tabasaran (Northern dialect Khanag subdialect),tab,42.0198,47.8379,Nakh-Daghestanian,NA,AZ KZ RU
403,Thai (Korat variety),sou,6.85668,99.7031,Tai-Kadai,NA,MM MY TH
265,Trinitario,trn,-15.3331,-65.4096,Arawakan,NA,BO
55,Tsez (Sagada dialect),ddo,42.2646,45.8096,Nakh-Daghestanian,NA,GE RU
822,Tum,hnu,18.7849,104.772,Austro-Asiatic,NA,LA VN
318,Uncunwee,ghl,11.6432,29.8122,Nubian,NA,SD
807,Wa,wbm,23.1024,99.108,Austro-Asiatic,NA,CN MM
805,Xu,huo,22.0163,100.881,Austro-Asiatic,NA,CN
268,Yavitero,yvt,2.800281,-68.084219,Arawakan,NA,VE
250,Yuwana,yau,5.63879,-65.4267,Jodi-Saliban,NA,VE
414,Zhuang-Longzhou,zzj,21.83753,107.3622,Tai-Kadai,NA,CN VN
